{"type": "FeatureCollection", "features": [ {"type": "Feature", "properties": {"norad_id": 34141, "name": "COSMOS 2251 DEB", "group": "cosmos-2251-debris", "lat": -73.39385478985545, "lon": -103.16163661883976, "alt_km": 767.6703481997383, "timestamp": "2025-12-26T14:28:48.096934+00:00", "meta": {"OBJECT_NAME": "COSMOS 2251 DEB", "OBJECT_ID": "1993-036LN", "EPOCH": "2025-12-26T00:08:49.523136", "MEAN_MOTION": 14.49371924, "ECCENTRICITY": 0.00464979, "INCLINATION": 74.0118, "RA_OF_ASC_NODE": 3.9367, "ARG_OF_PERICENTER": 85.4048, "MEAN_ANOMALY": 305.2819, "EPHEMERIS_TYPE": 0, "CLASSIFICATION_TYPE": "U", "NORAD_CAT_ID": 34141, "ELEMENT_SET_NO": 999, "REV_AT_EPOCH": 87886, "BSTAR": 0.0014155285, "MEAN_MOTION_DOT": 5.461e-05, "MEAN_MOTION_DDOT": 0}, "tle": {"line1": "1 34141U 93036LN  25360.00612874  .00005461  00000+0  14155-2 0  9991", "line2": "2 34141  74.0118   3.9367 0046497  85.4048 305.2819 14.49371924878862"}}, "geometry": {"type": "Point", "coordinates": [-103.16163661883976, -73.39385478985545]}}, {"type": "Feature", "properties": {"norad_id": 34270, "name": "COSMOS 2251 DEB", "group": "cosmos-2251-debris", "lat": -60.740291154283355, "lon": -110.87217167199331, "alt_km": 706.3825565820407, "timestamp": "2025-12-26T14:28:48.096944+00:00", "meta": {"OBJECT_NAME": "COSMOS 2251 DEB", "OBJECT_ID": "1993-036LQ", "EPOCH": "2025-12-26T04:56:44.994048", "MEAN_MOTION": 14.65261115, "ECCENTRICITY": 0.0048123, "INCLINATION": 74.011, "RA_OF_ASC_NODE": 280.676, "ARG_OF_PERICENTER": 69.3959, "MEAN_ANOMALY": 291.2361, "EPHEMERIS_TYPE": 0, "CLASSIFICATION_TYPE": "U", "NORAD_CAT_ID": 34270, "ELEMENT_SET_NO": 999, "REV_AT_EPOCH": 89293, "BSTAR": 0.00049849492, "MEAN_MOTION_DOT": 2.702e-05, "MEAN_MOTION_DDOT": 0}, "tle": {"line1": "1 34270U 93036LQ  25360.20607632  .00002702  00000+0  49849-3 0  9996", "line2": "2 34270  74.0110 280.6760 0048123  69.3959 291.2361 14.65261115892936"}}, "geometry": {"type": "Point", "coordinates": [-110.87217167199331, -60.740291154283355]}}, {"type": "Feature", "properties": {"norad_id": 34271, "name": "COSMOS 2251 DEB", "group": "cosmos-2251-debris", "lat": 14.618499881824558, "lon": -11.900369666555289, "alt_km": 651.9353368125549, "timestamp": "2025-12-26T14:28:48.096955+00:00", "meta": {"OBJECT_NAME": "COSMOS 2251 DEB", "OBJECT_ID": "1993-036LR", "EPOCH": "2025-12-25T13:30:46.228320", "MEAN_MOTION": 14.7104633, "ECCENTRICITY": 0.0018087, "INCLINATION": 74.0201, "RA_OF_ASC_NODE": 174.4074, "ARG_OF_PERICENTER": 227.5372, "MEAN_ANOMALY": 190.3592, "EPHEMERIS_TYPE": 0, "CLASSIFICATION_TYPE": "U", "NORAD_CAT_ID": 34271, "ELEMENT_SET_NO": 999, "REV_AT_EPOCH": 88423, "BSTAR": 0.0023085, "MEAN_MOTION_DOT": 0.00014213, "MEAN_MOTION_DDOT": 0}, "tle": {"line1": "1 34271U 93036LR  25359.56303505  .00014213  00000+0  23085-2 0  9999", "line2": "2 34271  74.0201 174.4074 0018087 227.5372 190.3592 14.71046330884235"}}, "geometry": {"type": "Point", "coordinates": [-11.900369666555289, 14.618499881824558]}}, {"type": "Feature", "properties": {"norad_id": 34273, "name": "COSMOS 2251 DEB", "group": "cosmos-2251-debris", "lat": 60.119209188904456, "lon": 90.80114567207558, "alt_km": 687.590765401952, "timestamp": "2025-12-26T14:28:48.096965+00:00", "meta": {"OBJECT_NAME": "COSMOS 2251 DEB", "OBJECT_ID": "1993-036LT", "EPOCH": "2025-12-24T23:01:23.216736", "MEAN_MOTION": 14.61329455, "ECCENTRICITY": 0.00133915, "INCLINATION": 74.0357, "RA_OF_ASC_NODE": 64.0621, "ARG_OF_PERICENTER": 189.5178, "MEAN_ANOMALY": 229.6507, "EPHEMERIS_TYPE": 0, "CLASSIFICATION_TYPE": "U", "NORAD_CAT_ID": 34273, "ELEMENT_SET_NO": 999, "REV_AT_EPOCH": 88800, "BSTAR": 0.00091560083, "MEAN_MOTION_DOT": 4.502e-05, "MEAN_MOTION_DDOT": 0}, "tle": {"line1": "1 34273U 93036LT  25358.95929649  .00004502  00000+0  91560-3 0  9990", "line2": "2 34273  74.0357  64.0621 0013391 189.5178 229.6507 14.61329455888007"}}, "geometry": {"type": "Point", "coordinates": [90.80114567207558, 60.119209188904456]}}, {"type": "Feature", "properties": {"norad_id": 34274, "name": "COSMOS 2251 DEB", "group": "cosmos-2251-debris", "lat": -33.33004206047096, "lon": 30.9801473991423, "alt_km": 693.6306729751823, "timestamp": "2025-12-26T14:28:48.096975+00:00", "meta": {"OBJECT_NAME": "COSMOS 2251 DEB", "OBJECT_ID": "1993-036LU", "EPOCH": "2025-12-26T05:05:22.765056", "MEAN_MOTION": 14.64930348, "ECCENTRICITY": 0.00211998, "INCLINATION": 74.0038, "RA_OF_ASC_NODE": 42.6078, "ARG_OF_PERICENTER": 191.2523, "MEAN_ANOMALY": 231.2246, "EPHEMERIS_TYPE": 0, "CLASSIFICATION_TYPE": "U", "NORAD_CAT_ID": 34274, "ELEMENT_SET_NO": 999, "REV_AT_EPOCH": 88873, "BSTAR": 0.0010372918, "MEAN_MOTION_DOT": 5.541e-05, "MEAN_MOTION_DDOT": 0}, "tle": {"line1": "1 34274U 93036LU  25360.21206904  .00005541  00000+0  10373-2 0  9991", "line2": "2 34274  74.0038  42.6078 0021199 191.2523 231.2246 14.64930348888732"}}, "geometry": {"type": "Point", "coordinates": [30.9801473991423, -33.33004206047096]}}, {"type": "Feature", "properties": {"norad_id": 34276, "name": "COSMOS 2251 DEB", "group": "cosmos-2251-debris", "lat": -60.18333253924454, "lon": -91.04360844877456, "alt_km": 696.6876182532906, "timestamp": "2025-12-26T14:28:48.096985+00:00", "meta": {"OBJECT_NAME": "COSMOS 2251 DEB", "OBJECT_ID": "1993-036LW", "EPOCH": "2025-12-25T08:15:09.211104", "MEAN_MOTION": 14.57306577, "ECCENTRICITY": 0.0022096, "INCLINATION": 74.0233, "RA_OF_ASC_NODE": 61.3562, "ARG_OF_PERICENTER": 206.9326, "MEAN_ANOMALY": 272.4278, "EPHEMERIS_TYPE": 0, "CLASSIFICATION_TYPE": "U", "NORAD_CAT_ID": 34276, "ELEMENT_SET_NO": 999, "REV_AT_EPOCH": 88776, "BSTAR": 0.00069073, "MEAN_MOTION_DOT": 3.108e-05, "MEAN_MOTION_DDOT": 0}, "tle": {"line1": "1 34276U 93036LW  25359.34385661  .00003108  00000+0  69073-3 0  9992", "line2": "2 34276  74.0233  61.3562 0022096 206.9326 272.4278 14.57306577887766"}}, "geometry": {"type": "Point", "coordinates": [-91.04360844877456, -60.18333253924454]}}, {"type": "Feature", "properties": {"norad_id": 34297, "name": "COSMOS 2251 DEB", "group": "cosmos-2251-debris", "lat": -49.94785420612955, "lon": -121.1149232033049, "alt_km": 764.0331589808302, "timestamp": "2025-12-26T14:28:48.096996+00:00", "meta": {"OBJECT_NAME": "COSMOS 2251 DEB", "OBJECT_ID": "1993-036MT", "EPOCH": "2025-12-26T03:46:53.845824", "MEAN_MOTION": 14.36640251, "ECCENTRICITY": 0.0017792, "INCLINATION": 74.0484, "RA_OF_ASC_NODE": 259.5943, "ARG_OF_PERICENTER": 325.8516, "MEAN_ANOMALY": 196.9859, "EPHEMERIS_TYPE": 0, "CLASSIFICATION_TYPE": "U", "NORAD_CAT_ID": 34297, "ELEMENT_SET_NO": 999, "REV_AT_EPOCH": 88257, "BSTAR": 0.00012690084, "MEAN_MOTION_DOT": 3.48e-06, "MEAN_MOTION_DDOT": 0}, "tle": {"line1": "1 34297U 93036MT  25360.15756766  .00000348  00000+0  12690-3 0  9990", "line2": "2 34297  74.0484 259.5943 0017792 325.8516 196.9859 14.36640251882576"}}, "geometry": {"type": "Point", "coordinates": [-121.1149232033049, -49.94785420612955]}}, {"type": "Feature", "properties": {"norad_id": 34301, "name": "COSMOS 2251 DEB", "group": "cosmos-2251-debris", "lat": 38.95210022545354, "lon": -54.27174365585171, "alt_km": 606.5151239576526, "timestamp": "2025-12-26T14:28:48.097006+00:00", "meta": {"OBJECT_NAME": "COSMOS 2251 DEB", "OBJECT_ID": "1993-036MX", "EPOCH": "2025-12-25T20:37:51.871296", "MEAN_MOTION": 14.8521316, "ECCENTRICITY": 0.00097952, "INCLINATION": 74.0058, "RA_OF_ASC_NODE": 140.6147, "ARG_OF_PERICENTER": 204.9504, "MEAN_ANOMALY": 279.4052, "EPHEMERIS_TYPE": 0, "CLASSIFICATION_TYPE": "U", "NORAD_CAT_ID": 34301, "ELEMENT_SET_NO": 999, "REV_AT_EPOCH": 88595, "BSTAR": 0.003571477, "MEAN_MOTION_DOT": 0.00030756, "MEAN_MOTION_DDOT": 0}, "tle": {"line1": "1 34301U 93036MX  25359.85962814  .00030756  00000+0  35715-2 0  9992", "line2": "2 34301  74.0058 140.6147 0009795 204.9504 279.4052 14.85213160885959"}}, "geometry": {"type": "Point", "coordinates": [-54.27174365585171, 38.95210022545354]}}, {"type": "Feature", "properties": {"norad_id": 34302, "name": "COSMOS 2251 DEB", "group": "cosmos-2251-debris", "lat": 58.31461826019001, "lon": -109.13656272901419, "alt_km": 810.1361620359849, "timestamp": "2025-12-26T14:28:48.097016+00:00", "meta": {"OBJECT_NAME": "COSMOS 2251 DEB", "OBJECT_ID": "1993-036MY", "EPOCH": "2025-12-26T02:31:13.627776", "MEAN_MOTION": 14.39379991, "ECCENTRICITY": 0.00795534, "INCLINATION": 74.1783, "RA_OF_ASC_NODE": 99.1229, "ARG_OF_PERICENTER": 310.6719, "MEAN_ANOMALY": 105.7963, "EPHEMERIS_TYPE": 0, "CLASSIFICATION_TYPE": "U", "NORAD_CAT_ID": 34302, "ELEMENT_SET_NO": 999, "REV_AT_EPOCH": 87913, "BSTAR": 0.000596886, "MEAN_MOTION_DOT": 1.9e-05, "MEAN_MOTION_DDOT": 0}, "tle": {"line1": "1 34302U 93036MY  25360.10501884  .00001900  00000+0  59689-3 0  9995", "line2": "2 34302  74.1783  99.1229 0079553 310.6719 105.7963 14.39379991879136"}}, "geometry": {"type": "Point", "coordinates": [-109.13656272901419, 58.31461826019001]}}, {"type": "Feature", "properties": {"norad_id": 34303, "name": "COSMOS 2251 DEB", "group": "cosmos-2251-debris", "lat": -23.120091287904998, "lon": -105.27471121661654, "alt_km": 667.5241203430196, "timestamp": "2025-12-26T14:28:48.097027+00:00", "meta": {"OBJECT_NAME": "COSMOS 2251 DEB", "OBJECT_ID": "1993-036MZ", "EPOCH": "2025-12-25T17:15:04.595616", "MEAN_MOTION": 14.54626581, "ECCENTRICITY": 0.01355474, "INCLINATION": 74.0045, "RA_OF_ASC_NODE": 263.4365, "ARG_OF_PERICENTER": 38.5269, "MEAN_ANOMALY": 348.7042, "EPHEMERIS_TYPE": 0, "CLASSIFICATION_TYPE": "U", "NORAD_CAT_ID": 34303, "ELEMENT_SET_NO": 999, "REV_AT_EPOCH": 88151, "BSTAR": 0.0015964318, "MEAN_MOTION_DOT": 7.691e-05, "MEAN_MOTION_DDOT": 0}, "tle": {"line1": "1 34303U 93036MZ  25359.71880319  .00007691  00000+0  15964-2 0  9994", "line2": "2 34303  74.0045 263.4365 0135547  38.5269 348.7042 14.54626581881515"}}, "geometry": {"type": "Point", "coordinates": [-105.27471121661654, -23.120091287904998]}}]}